{
  "type": "FeatureCollection",
  "name": "samcheok_power_grid_all",
  "crs": {
    "type": "name",
    "properties": {
      "name": "urn:ogc:def:crs:OGC:1.3:CRS84"
    }
  },
  "features": [
    {
      "type": "Feature",
      "properties": {
        "id": "1159436523",
        "name": "삼척화력발전소",
        "capacity_mw": "2100 MW",
        "source": "coal",
        "method": "combustion",
        "center_lon": 129.17406089999992,
        "center_lat": 37.408512849999966,
        "source_file": "samcheok_plant.geojson"
      },
      "geometry": {
        "type": "Polygon",
        "coordinates": [
          [
            [
              129.1684538999999,
              37.40609999999996
            ],
            [
              129.1692240999999,
              37.40541259999996
            ],
            [
              129.1727389999999,
              37.404722599999964
            ],
            [
              129.1741138999999,
              37.40551409999996
            ],
            [
              129.1764950999999,
              37.40552449999996
            ],
            [
              129.1778741999999,
              37.40500439999996
            ],
            [
              129.18179919999992,
              37.40504449999996
            ],
            [
              129.18185929999993,
              37.40992019999996
            ],
            [
              129.17897709999994,
              37.41085949999996
            ],
            [
              129.17733289999995,
              37.41042889999996
            ],
            [
              129.17622349999996,
              37.41187679999996
            ],
            [
              129.17461249999997,
              37.41132489999996
            ],
            [
              129.17378929999995,
              37.41237619999996
            ],
            [
              129.17254379999994,
              37.41203129999996
            ],
            [
              129.17285339999995,
              37.41119249999996
            ],
            [
              129.17251949999996,
              37.41038169999997
            ],
            [
              129.17307459999998,
              37.409382499999964
            ],
            [
              129.16969029999998,
              37.40933659999996
            ],
            [
              129.1685885,
              37.407723199999964
            ],
            [
              129.1684538999999,
              37.40609999999996
            ]
          ]
        ]
      }
    },
    {
      "type": "Feature",
      "properties": {
        "name": "신태백변전소",
        "type": "substation",
        "source_file": "sintaebaek_substation.geojson"
      },
      "geometry": {
        "type": "Point",
        "coordinates": [
          128.961597034938,
          37.25677345586969,
          951.3771121999016
        ]
      }
    },
    {
      "type": "Feature",
      "properties": {
        "id": "24059423",
        "voltage_kv": 765.0,
        "cables": "6",
        "circuits": "2",
        "description": "신태백변전소-신가평변전소",
        "start_lon": 128.95995460000003,
        "start_lat": 37.25687989999988,
        "end_lon": 127.5029618,
        "end_lat": 37.61463519999988,
        "source_file": "samcheok_grid_lines.geojson"
      },
      "geometry": {
        "type": "LineString",
        "coordinates": [
          [
            128.95995460000003,
            37.25687989999988
          ],
          [
            128.95555540000012,
            37.25716270000008
          ],
          [
            128.9488193000001,
            37.259684900000074
          ],
          [
            128.94534700000023,
            37.2604537000001
          ],
          [
            128.9401257000001,
            37.26167960000007
          ],
          [
            128.9307533000001,
            37.263300200000074
          ],
          [
            128.92543620000023,
            37.2640551000001
          ],
          [
            128.91899650000013,
            37.26213670000009
          ],
          [
            128.9134270000001,
            37.26048140000009
          ],
          [
            128.90865060000021,
            37.2591195000001
          ],
          [
            128.90351240000015,
            37.25742750000009
          ],
          [
            128.89858420000016,
            37.25951290000009
          ],
          [
            128.8920814000001,
            37.26233320000008
          ],
          [
            128.88759100000013,
            37.26385000000009
          ],
          [
            128.88362270000007,
            37.26515200000007
          ],
          [
            128.87714820000016,
            37.26641240000009
          ],
          [
            128.87103920000007,
            37.26758980000008
          ],
          [
            128.86734070000014,
            37.26886400000009
          ],
          [
            128.8597175000001,
            37.27131560000007
          ],
          [
            128.85615830000023,
            37.272354300000096
          ],
          [
            128.84777040000023,
            37.2741713000001
          ],
          [
            128.84262370000016,
            37.27532000000009
          ],
          [
            128.84061470000015,
            37.27796460000009
          ],
          [
            128.83421940000008,
            37.28652140000008
          ],
          [
            128.8281578000002,
            37.29018980000011
          ],
          [
            128.82216340000022,
            37.2936142000001
          ],
          [
            128.81827010000003,
            37.29585170000008
          ],
          [
            128.81552020000004,
            37.29861770000008
          ],
          [
            128.8135197000001,
            37.30072750000007
          ],
          [
            128.80600680000015,
            37.30268060000009
          ],
          [
            128.7992914000001,
            37.30289490000007
          ],
          [
            128.79336780000014,
            37.30687790000009
          ],
          [
            128.79018230000014,
            37.30901360000008
          ],
          [
            128.7806312000001,
            37.313150699999994
          ],
          [
            128.7671228000001,
            37.3194929
          ],
          [
            128.7669562000001,
            37.3235538
          ],
          [
            128.76684100000008,
            37.32648929999999
          ],
          [
            128.76228000000015,
            37.33009319999998
          ],
          [
            128.75872670000015,
            37.33294599999998
          ],
          [
            128.75504680000014,
            37.33619249999997
          ],
          [
            128.7512805000001,
            37.33746079999997
          ],
          [
            128.74705350000016,
            37.339008399999976
          ],
          [
            128.7411256000001,
            37.33997259999995
          ],
          [
            128.73539200000013,
            37.340626599999965
          ],
          [
            128.7279481000001,
            37.341416499999944
          ],
          [
            128.7248696000001,
            37.3431
          ],
          [
            128.7174746000001,
            37.346007199999995
          ],
          [
            128.71196900000012,
            37.34695889999994
          ],
          [
            128.70635760000013,
            37.34783939999994
          ],
          [
            128.70202490000008,
            37.34858399999992
          ],
          [
            128.69757810000013,
            37.348331499999944
          ],
          [
            128.6936688000001,
            37.34808549999993
          ],
          [
            128.6902075000001,
            37.34783939999994
          ],
          [
            128.68638780000012,
            37.34765169999994
          ],
          [
            128.6806868000001,
            37.348247299999954
          ],
          [
            128.6675338000001,
            37.349975999999934
          ],
          [
            128.6632336000001,
            37.35057159999995
          ],
          [
            128.65341160000008,
            37.350610499999924
          ],
          [
            128.6490463000001,
            37.35059749999994
          ],
          [
            128.64437310000008,
            37.352959999999925
          ],
          [
            128.63882690000008,
            37.35767939999997
          ],
          [
            128.6395561000001,
            37.362306599999926
          ],
          [
            128.64029450000012,
            37.366275499999944
          ],
          [
            128.63729740000014,
            37.370528099999945
          ],
          [
            128.6292335000001,
            37.372218399999916
          ],
          [
            128.6240123000001,
            37.373430799999966
          ],
          [
            128.6168741000001,
            37.372706599999916
          ],
          [
            128.6127226000001,
            37.37492789999992
          ],
          [
            128.60979880000008,
            37.37677889999993
          ],
          [
            128.60265990000013,
            37.37838899999994
          ],
          [
            128.5974769000001,
            37.37975269999992
          ],
          [
            128.5917986000001,
            37.38096079999992
          ],
          [
            128.58723760000007,
            37.38181199999992
          ],
          [
            128.58158240000014,
            37.38302009999994
          ],
          [
            128.57398070000005,
            37.38452099999993
          ],
          [
            128.5660564000001,
            37.38609499999992
          ],
          [
            128.55824740000008,
            37.38758669999994
          ],
          [
            128.55534490000008,
            37.38882219999992
          ],
          [
            128.5509336000001,
            37.39117399999994
          ],
          [
            128.5505540000001,
            37.396987399999915
          ],
          [
            128.5533630000001,
            37.401280999999955
          ],
          [
            128.5506525000001,
            37.40679589999991
          ],
          [
            128.54745050000005,
            37.40909319999993
          ],
          [
            128.5421482000001,
            37.41319539999992
          ],
          [
            128.53805100000005,
            37.41662729999993
          ],
          [
            128.53361810000004,
            37.4206606999999
          ],
          [
            128.52989990000012,
            37.422212599999924
          ],
          [
            128.5267321000001,
            37.42362749999993
          ],
          [
            128.52142120000008,
            37.42588329999993
          ],
          [
            128.51709160000013,
            37.42627979999994
          ],
          [
            128.5131666,
            37.42652589999989
          ],
          [
            128.50781270000004,
            37.42700439999993
          ],
          [
            128.50396510000013,
            37.42837829999994
          ],
          [
            128.49658840000012,
            37.43105089999994
          ],
          [
            128.4922932,
            37.432650299999885
          ],
          [
            128.48649170000002,
            37.43476909999988
          ],
          [
            128.48390950000007,
            37.436607599999924
          ],
          [
            128.4809485000001,
            37.43878099999999
          ],
          [
            128.47788420000006,
            37.440872299999924
          ],
          [
            128.47357180000006,
            37.445375999999925
          ],
          [
            128.4713769000001,
            37.44763109999994
          ],
          [
            128.46955210000004,
            37.45031659999993
          ],
          [
            128.46984470000004,
            37.45348729999993
          ],
          [
            128.47013740000006,
            37.456575799999925
          ],
          [
            128.46789080000005,
            37.45989639999993
          ],
          [
            128.4661262000001,
            37.46253369999994
          ],
          [
            128.4663931,
            37.467370799999884
          ],
          [
            128.46315660000005,
            37.46919489999993
          ],
          [
            128.4572002000001,
            37.47248769999994
          ],
          [
            128.4541617000001,
            37.474277499999936
          ],
          [
            128.45026250000004,
            37.47726949999993
          ],
          [
            128.44820530000004,
            37.481641099999926
          ],
          [
            128.4466645000001,
            37.48457819999994
          ],
          [
            128.4440737000001,
            37.487624399999994
          ],
          [
            128.44274810000013,
            37.491783799999936
          ],
          [
            128.44176680000012,
            37.49449509999994
          ],
          [
            128.44057900000004,
            37.49817599999993
          ],
          [
            128.43863370000008,
            37.50288779999993
          ],
          [
            128.43644740000005,
            37.50831639999993
          ],
          [
            128.43462260000004,
            37.512590599999925
          ],
          [
            128.4327978000001,
            37.51702169999993
          ],
          [
            128.43111070000012,
            37.52103599999994
          ],
          [
            128.43130870000013,
            37.52724139999994
          ],
          [
            128.43155830000012,
            37.531896799999934
          ],
          [
            128.4305512000001,
            37.53477049999999
          ],
          [
            128.42907930000013,
            37.53895449999993
          ],
          [
            128.42774510000012,
            37.54262639999993
          ],
          [
            128.42382010000017,
            37.550454199999976
          ],
          [
            128.42079020000008,
            37.55488299999992
          ],
          [
            128.41605610000008,
            37.556466099999916
          ],
          [
            128.4129487000001,
            37.55751689999995
          ],
          [
            128.40827480000004,
            37.557271299999925
          ],
          [
            128.40201710000008,
            37.55686869999993
          ],
          [
            128.39642509999993,
            37.556526999999946
          ],
          [
            128.39397769999997,
            37.55637739999989
          ],
          [
            128.38682480000008,
            37.556732199999914
          ],
          [
            128.37995590000017,
            37.55709389999998
          ],
          [
            128.37492020000005,
            37.55366489999993
          ],
          [
            128.37112400000012,
            37.55115429999993
          ],
          [
            128.3663689000001,
            37.54790699999994
          ],
          [
            128.36340190000004,
            37.54578429999992
          ],
          [
            128.35647890000004,
            37.545324899999926
          ],
          [
            128.35096450000012,
            37.54488139999993
          ],
          [
            128.34609950000012,
            37.54571309999993
          ],
          [
            128.3412244000001,
            37.54653679999994
          ],
          [
            128.3363494000001,
            37.54738429999994
          ],
          [
            128.33148430000008,
            37.54829509999993
          ],
          [
            128.32661930000012,
            37.54923759999994
          ],
          [
            128.32210390000012,
            37.55014049999994
          ],
          [
            128.31550059999998,
            37.551415699999886
          ],
          [
            128.30967650000008,
            37.55433019999992
          ],
          [
            128.3061801000001,
            37.5561359
          ],
          [
            128.3004559000001,
            37.55809989999992
          ],
          [
            128.29622020000008,
            37.55962039999993
          ],
          [
            128.2923142000001,
            37.56101409999995
          ],
          [
            128.2874179,
            37.56413159999999
          ],
          [
            128.28342320000016,
            37.56689769999998
          ],
          [
            128.28047620000012,
            37.570429199999964
          ],
          [
            128.27837840000012,
            37.57284409999994
          ],
          [
            128.27574100000012,
            37.57601119999994
          ],
          [
            128.27152949999996,
            37.57810759999989
          ],
          [
            128.2677574000001,
            37.580055799999926
          ],
          [
            128.2616895000001,
            37.5810691
          ],
          [
            128.25662470000003,
            37.581914399999924
          ],
          [
            128.25143980000004,
            37.58214389999993
          ],
          [
            128.2480562,
            37.58226699999988
          ],
          [
            128.2426304,
            37.582286399999994
          ],
          [
            128.2373169,
            37.58220349999999
          ],
          [
            128.23291830000008,
            37.58202069999993
          ],
          [
            128.2255295000001,
            37.5815897
          ],
          [
            128.22026690000004,
            37.58142169999993
          ],
          [
            128.21486590000012,
            37.581963599999995
          ],
          [
            128.20887580000013,
            37.58250659999993
          ],
          [
            128.2033589000001,
            37.58317269999995
          ],
          [
            128.1997139000001,
            37.583609399999915
          ],
          [
            128.1938933000001,
            37.58638029999995
          ],
          [
            128.1880585,
            37.589106299999884
          ],
          [
            128.1836506000001,
            37.59000749999995
          ],
          [
            128.1786777000001,
            37.5909478
          ],
          [
            128.17371180000012,
            37.591938499999934
          ],
          [
            128.16415430000012,
            37.59393669999995
          ],
          [
            128.1570423,
            37.59196879999988
          ],
          [
            128.15019630000012,
            37.59304839999994
          ],
          [
            128.14160539999997,
            37.59405539999989
          ],
          [
            128.13234680000005,
            37.59636899999993
          ],
          [
            128.12443950000008,
            37.599154199999916
          ],
          [
            128.1198786,
            37.60109799999988
          ],
          [
            128.11340320000008,
            37.603589799999995
          ],
          [
            128.1059611,
            37.60495019999999
          ],
          [
            128.09993760000012,
            37.60612619999995
          ],
          [
            128.09230390000013,
            37.60544429999998
          ],
          [
            128.08915869999998,
            37.60592219999989
          ],
          [
            128.08561889999996,
            37.6065313
          ],
          [
            128.0834556000001,
            37.60690359999997
          ],
          [
            128.08006910000012,
            37.606451199999995
          ],
          [
            128.07656990000012,
            37.606011499999994
          ],
          [
            128.07285360000012,
            37.60555899999994
          ],
          [
            128.06778590000013,
            37.605087399999995
          ],
          [
            128.0616564,
            37.60495359999988
          ],
          [
            128.0555109,
            37.60488989999988
          ],
          [
            128.0497112000001,
            37.603232899999924
          ],
          [
            128.0455363,
            37.60190299999999
          ],
          [
            128.03770959999997,
            37.599613099999885
          ],
          [
            128.0322647,
            37.596203499999994
          ],
          [
            128.0267147000001,
            37.5927732
          ],
          [
            128.0237085,
            37.59181269999999
          ],
          [
            128.0180047,
            37.58982019999999
          ],
          [
            128.0142977,
            37.58842579999988
          ],
          [
            128.00760970000002,
            37.58641539999987
          ],
          [
            128.00336250000004,
            37.584983899999884
          ],
          [
            127.99813579999999,
            37.58324049999988
          ],
          [
            127.9933587,
            37.581541699999875
          ],
          [
            127.989232,
            37.58007189999987
          ],
          [
            127.984214,
            37.58033279999987
          ],
          [
            127.978915,
            37.580638199999875
          ],
          [
            127.9717614,
            37.58101359999988
          ],
          [
            127.96622159999998,
            37.58269339999988
          ],
          [
            127.9621028,
            37.58395309999988
          ],
          [
            127.95680390000004,
            37.586415399999886
          ],
          [
            127.95389749999998,
            37.587795999999884
          ],
          [
            127.94894370000003,
            37.59013719999989
          ],
          [
            127.94503370000001,
            37.58948829999987
          ],
          [
            127.9414449,
            37.588871199999886
          ],
          [
            127.93791220000001,
            37.586765299999875
          ],
          [
            127.93295049999999,
            37.58375589999988
          ],
          [
            127.93002799999998,
            37.58324049999989
          ],
          [
            127.92612609999998,
            37.58138899999988
          ],
          [
            127.91979139999998,
            37.57843029999989
          ],
          [
            127.91138529999998,
            37.574485199999884
          ],
          [
            127.90529949999998,
            37.57239799999989
          ],
          [
            127.89735909999996,
            37.56962989999989
          ],
          [
            127.8944928,
            37.56864349999987
          ],
          [
            127.8911175,
            37.5673997999999
          ],
          [
            127.88420799999996,
            37.565124199999886
          ],
          [
            127.87552889999998,
            37.56476149999988
          ],
          [
            127.8714102,
            37.5646150999999
          ],
          [
            127.8651317,
            37.56438599999989
          ],
          [
            127.8602823,
            37.56342499999989
          ],
          [
            127.85422059999998,
            37.56224129999988
          ],
          [
            127.84832749999995,
            37.561031999999884
          ],
          [
            127.84336579999997,
            37.56187209999988
          ],
          [
            127.8370472,
            37.562903099999886
          ],
          [
            127.83050369999998,
            37.56395319999988
          ],
          [
            127.82340629999997,
            37.56510509999988
          ],
          [
            127.81868399999999,
            37.5679961999999
          ],
          [
            127.81413309999998,
            37.570782299999884
          ],
          [
            127.80932609999998,
            37.57370319999989
          ],
          [
            127.80465780000002,
            37.57653979999987
          ],
          [
            127.79964280000002,
            37.57964729999987
          ],
          [
            127.79022739999998,
            37.580720499999885
          ],
          [
            127.78486269999998,
            37.58124449999988
          ],
          [
            127.77701250000001,
            37.58201119999987
          ],
          [
            127.77347729999998,
            37.582321999999884
          ],
          [
            127.76639049999999,
            37.583142199999884
          ],
          [
            127.76189799999999,
            37.585279099999994
          ],
          [
            127.75766549999999,
            37.587200599999996
          ],
          [
            127.75143739999999,
            37.59024839999999
          ],
          [
            127.7418458,
            37.58935149999999
          ],
          [
            127.726863,
            37.588139999999996
          ],
          [
            127.7225125,
            37.587753199999995
          ],
          [
            127.71604839999999,
            37.58740039999999
          ],
          [
            127.7077925,
            37.58656289999999
          ],
          [
            127.7027178,
            37.58950029999999
          ],
          [
            127.69768330000001,
            37.59235459999999
          ],
          [
            127.6925468,
            37.59281579999999
          ],
          [
            127.6854819,
            37.59367439999999
          ],
          [
            127.6812601,
            37.59405699999999
          ],
          [
            127.67531100000001,
            37.59462229999999
          ],
          [
            127.6688332,
            37.595362299999884
          ],
          [
            127.66349679999999,
            37.59592099999988
          ],
          [
            127.65845720000002,
            37.594626799999865
          ],
          [
            127.65349870000003,
            37.59345639999989
          ],
          [
            127.6478931,
            37.59204859999987
          ],
          [
            127.63919500000003,
            37.58989029999989
          ],
          [
            127.6348286,
            37.59022809999987
          ],
          [
            127.6271801,
            37.59072849999987
          ],
          [
            127.62040130000003,
            37.59120129999989
          ],
          [
            127.61401819999999,
            37.588805999999884
          ],
          [
            127.61002829999998,
            37.587254399999885
          ],
          [
            127.60184550000002,
            37.58399989999988
          ],
          [
            127.59663450000001,
            37.581941199999875
          ],
          [
            127.5911366,
            37.57986739999987
          ],
          [
            127.58513920000003,
            37.57966569999988
          ],
          [
            127.58042310000002,
            37.57941369999987
          ],
          [
            127.57435090000001,
            37.58200599999987
          ],
          [
            127.57012940000003,
            37.58496439999988
          ],
          [
            127.56396110000001,
            37.58921599999987
          ],
          [
            127.56052990000003,
            37.589786199999885
          ],
          [
            127.552723,
            37.59090119999987
          ],
          [
            127.5490927,
            37.59144599999987
          ],
          [
            127.54444070000001,
            37.59209769999987
          ],
          [
            127.5404698,
            37.59137469999987
          ],
          [
            127.53491830000003,
            37.59045829999989
          ],
          [
            127.52904550000001,
            37.58946029999987
          ],
          [
            127.5250682,
            37.59034119999987
          ],
          [
            127.51966279999988,
            37.594089900000135
          ],
          [
            127.51664,
            37.59610749999988
          ],
          [
            127.5122001,
            37.59918089999988
          ],
          [
            127.50906770000002,
            37.60134259999987
          ],
          [
            127.50452930000003,
            37.60685729999989
          ],
          [
            127.50273920000004,
            37.61069049999989
          ],
          [
            127.5029618,
            37.61463519999988
          ]
        ]
      }
    },
    {
      "type": "Feature",
      "properties": {
        "name": "삼척화력→신태백 송전경로",
        "from": "삼척화력발전소",
        "to": "신태백변전소",
        "source_file": "samcheok_to_sintaebaek_route.geojson"
      },
      "geometry": {
        "type": "LineString",
        "coordinates": [
          [
            129.176822266085,
            37.40739344848054,
            0.0
          ],
          [
            129.1829236890537,
            37.4022299552158,
            0.0
          ],
          [
            129.1728236380699,
            37.39635901531648,
            0.0
          ],
          [
            129.1669084523981,
            37.38604381329392,
            0.0
          ],
          [
            129.1648501100599,
            37.3750670246449,
            0.0
          ],
          [
            129.1698985446785,
            37.36207789639177,
            0.0
          ],
          [
            129.1584801082259,
            37.3516597113307,
            0.0
          ],
          [
            129.1424295026884,
            37.34312291394711,
            0.0
          ],
          [
            129.0936169881486,
            37.32388320641434,
            0.0
          ],
          [
            129.0664132990064,
            37.32388986892493,
            0.0
          ],
          [
            129.0381400177803,
            37.29769048352626,
            0.0
          ],
          [
            129.0323209794831,
            37.26460856292849,
            0.0
          ],
          [
            128.9893942609814,
            37.25123600114738,
            0.0
          ],
          [
            128.9617101443564,
            37.25739271340582,
            0.0
          ]
        ]
      }
    }
  ]
}